[{"OBJECT_NAME":"ONEWEB-0187","OBJECT_ID":"2021-031M","EPOCH":"2026-03-09T22:34:00.794208","MEAN_MOTION":13.14501996,"ECCENTRICITY":0.00018798,"INCLINATION":87.8974,"RA_OF_ASC_NODE":309.5282,"ARG_OF_PERICENTER":75.9815,"MEAN_ANOMALY":284.1523,"EPHEMERIS_TYPE":0,"CLASSIFICATION_TYPE":"U","NORAD_CAT_ID":48221,"ELEMENT_SET_NO":999,"REV_AT_EPOCH":23522,"BSTAR":-6.811734e-5,"MEAN_MOTION_DOT":-1.2e-7,"MEAN_MOTION_DDOT":0},{"OBJECT_NAME":"THORAD AGENA D DEB","OBJECT_ID":"1970-025DS","EPOCH":"2026-03-09T10:26:26.274048","MEAN_MOTION":13.26883764,"ECCENTRICITY":0.01838948,"INCLINATION":99.7479,"RA_OF_ASC_NODE":230.1145,"ARG_OF_PERICENTER":166.8853,"MEAN_ANOMALY":252.4923,"EPHEMERIS_TYPE":0,"CLASSIFICATION_TYPE":"U","NORAD_CAT_ID":4772,"ELEMENT_SET_NO":999,"REV_AT_EPOCH":68894,"BSTAR":0.0015860797,"MEAN_MOTION_DOT":7.34e-6,"MEAN_MOTION_DDOT":0}]
